{
    "links": {
        "self": "http://www.neowsapp.com/rest/v1/neo/3588016?api_key=iIulBulltgU6a56xZRHN4H3l9WmuAYTsLGpBGhQ2"
    },
    "id": "3588016",
    "neo_reference_id": "3588016",
    "name": "(2011 WO2)",
    "designation": "2011 WO2",
    "nasa_jpl_url": "http://ssd.jpl.nasa.gov/sbdb.cgi?sstr=3588016",
    "absolute_magnitude_h": 25.4,
    "estimated_diameter": {
        "kilometers": {
            "estimated_diameter_min": 0.022108281,
            "estimated_diameter_max": 0.0494356193
        },
        "meters": {
            "estimated_diameter_min": 22.1082810359,
            "estimated_diameter_max": 49.435619262
        },
        "miles": {
            "estimated_diameter_min": 0.0137374447,
            "estimated_diameter_max": 0.0307178602
        },
        "feet": {
            "estimated_diameter_min": 72.5337327539,
            "estimated_diameter_max": 162.1903570994
        }
    },
    "is_potentially_hazardous_asteroid": false,
    "close_approach_data": [
        {
            "close_approach_date": "2011-11-07",
            "close_approach_date_full": "2011-Nov-07 00:40",
            "epoch_date_close_approach": 1320626400000,
            "relative_velocity": {
                "kilometers_per_second": "14.3834391477",
                "kilometers_per_hour": "51780.3809318928",
                "miles_per_hour": "32174.3150295975"
            },
            "miss_distance": {
                "astronomical": "0.0191655214",
                "lunar": "7.4553878246",
                "kilometers": "2867121.178879418",
                "miles": "1781546.4891472484"
            },
            "orbiting_body": "Earth"
        }
    ],
    "orbital_data": {
        "orbit_id": "5",
        "orbit_determination_date": "2019-07-16 06:14:43",
        "first_observation_date": "2011-11-14",
        "last_observation_date": "2011-11-18",
        "data_arc_in_days": 4,
        "observations_used": 17,
        "orbit_uncertainty": "9",
        "minimum_orbit_intersection": ".00895018",
        "jupiter_tisserand_invariant": "3.750",
        "epoch_osculation": "2455881.5",
        "eccentricity": ".5670754531975793",
        "semi_major_axis": "1.886201665504423",
        "inclination": "1.527155966928233",
        "ascending_node_longitude": "242.2295355958679",
        "orbital_period": "946.1949217831808",
        "perihelion_distance": ".8165830012164734",
        "perihelion_argument": "101.052054946088",
        "aphelion_distance": "2.955820329792373",
        "perihelion_time": "2455831.380234169243",
        "mean_anomaly": "19.06913182863929",
        "mean_motion": ".3804712873765491",
        "equinox": "J2000",
        "orbit_class": {
            "orbit_class_type": "APO",
            "orbit_class_description": "Near-Earth asteroid orbits which cross the Earth’s orbit similar to that of 1862 Apollo",
            "orbit_class_range": "a (semi-major axis) > 1.0 AU; q (perihelion) < 1.017 AU"
        }
    },
    "is_sentry_object": false
}